NORAD_CAT_ID,OBJECT_NAME,OBJECT_TYPE,EPOCH,MEAN_MOTION,ECCENTRICITY,INCLINATION,RA_OF_ASC_NODE,ARG_OF_PERICENTER,MEAN_ANOMALY,BSTAR,MEAN_MOTION_DOT,MEAN_MOTION_DDOT,TLE_LINE0,TLE_LINE1,TLE_LINE2,SEMIMAJOR_AXIS,PERIOD,APOGEE,PERIGEE,DECAYED
50157.0,STARLINK-3313,PAYLOAD,2023-02-10 00:18:08,15.08842531,0.0001148,53.2134,263.5057,81.9939,278.1184,0.00062129,9.614e-05,0.0,0 STARLINK-3313,1 50157U 21125B   23041.01259771  .00009614  00000-0  62129-3 0  9994,2 50157  53.2134 263.5057 0001148  81.9939 278.1184 15.08842531 66863,6917.873,95.437,540.532,538.943,0.0
50157.0,STARLINK-3313,PAYLOAD,2023-02-10 20:58:08,15.08852441,0.0001127,53.2134,259.639,79.9535,280.1584,0.00059196,9.149e-05,0.0,0 STARLINK-3313,1 50157U 21125B   23041.87371387  .00009149  00000-0  59196-3 0  9999,2 50157  53.2134 259.6390 0001127  79.9535 280.1584 15.08852441 66997,6917.842,95.437,540.487,538.928,0.0
50157.0,STARLINK-3313,PAYLOAD,2023-02-11 20:48:55,15.08850595,0.0001419,53.2153,255.1769,92.0858,268.0296,0.00019064,2.748e-05,0.0,0 STARLINK-3313,1 50157U 21125B   23042.86731374  .00002748  00000-0  19064-3 0  9993,2 50157  53.2153 255.1769 0001419  92.0858 268.0296 15.08850595 67148,6917.848,95.437,540.695,538.731,0.0
50157.0,STARLINK-3313,PAYLOAD,2023-02-11 22:24:19,15.08844461,0.0001285,53.2145,254.879,84.5982,275.5157,0.0001243,1.691e-05,0.0,0 STARLINK-3313,1 50157U 21125B   23042.93355433  .00001691  00000-0  12430-3 0  9995,2 50157  53.2145 254.8790 0001285  84.5982 275.5157 15.08844461 64022,6917.867,95.437,540.621,538.843,0.0
50157.0,STARLINK-3313,PAYLOAD,2023-02-12 23:50:29,15.0884424,0.0001212,53.2151,250.1235,87.4495,272.6636,0.000101,1.32e-05,0.0,0 STARLINK-3313,1 50157U 21125B   23043.99339393  .00001320  00000-0  10100-3 0  9990,2 50157  53.2151 250.1235 0001212  87.4495 272.6636 15.08844240 64185,6917.867,95.437,540.571,538.894,0.0
50157.0,STARLINK-3313,PAYLOAD,2023-02-13 14:08:57,15.08834821,0.0001418,53.214,247.4482,95.0753,265.0401,5.0103e-05,5.09e-06,0.0,0 STARLINK-3313,1 50157U 21125B   23044.58955990  .00000509  00000-0  50103-4 0  9999,2 50157  53.2140 247.4482 0001418  95.0753 265.0401 15.08834821 67404,6917.896,95.438,540.742,538.78,0.0
50157.0,STARLINK-3313,PAYLOAD,2023-02-13 20:30:30,15.08835258,0.0001449,53.2139,246.2588,95.367,264.7487,4.2577e-05,3.9e-06,0.0,0 STARLINK-3313,1 50157U 21125B   23044.85452040  .00000390  00000-0  42577-4 0  9991,2 50157  53.2139 246.2588 0001449  95.3670 264.7487 15.08835258 64313,6917.895,95.438,540.762,538.757,0.0
50157.0,STARLINK-3313,PAYLOAD,2023-02-14 13:59:44,15.08839911,0.0001237,53.2143,242.988,96.3711,263.7422,2.08e-05,4.3e-07,0.0,0 STARLINK-3313,1 50157U 21125B   23045.58315909  .00000043  00000-0  20800-4 0  9994,2 50157  53.2143 242.9880 0001237  96.3711 263.7422 15.08839911 67555,6917.881,95.438,540.601,538.89,0.0
50157.0,STARLINK-3313,PAYLOAD,2023-02-15 05:53:36,15.08844877,0.0001202,53.2143,240.0143,90.3089,269.8041,0.00012079,1.635e-05,0.0,0 STARLINK-3313,1 50157U 21125B   23046.24555672  .00001635  00000-0  12079-3 0  9997,2 50157  53.2143 240.0143 0001202  90.3089 269.8041 15.08844877 64525,6917.865,95.437,540.562,538.899,0.0
50157.0,STARLINK-3313,PAYLOAD,2023-02-15 12:15:08,15.08844683,0.000131,53.2135,238.8246,89.8454,270.2688,7.9832e-05,9.83e-06,0.0,0 STARLINK-3313,1 50157U 21125B   23046.51051675  .00000983  00000-0  79832-4 0  9997,2 50157  53.2135 238.8246 0001310  89.8454 270.2688 15.08844683 67693,6917.866,95.437,540.637,538.825,0.0
50157.0,STARLINK-3313,PAYLOAD,2023-02-15 21:47:27,15.08847914,0.0001212,53.2134,237.0404,88.8479,271.2651,0.00019817,2.868e-05,0.0,0 STARLINK-3313,1 50157U 21125B   23046.90795542  .00002868  00000-0  19817-3 0  9998,2 50157  53.2134 237.0404 0001212  88.8479 271.2651 15.08847914 67754,6917.856,95.437,540.56,538.883,0.0
50157.0,STARLINK-3313,PAYLOAD,2023-02-16 12:05:55,15.08840874,0.0001398,53.2136,234.3638,82.3032,277.8119,9.235e-05,1.182e-05,0.0,0 STARLINK-3313,1 50157U 21125B   23047.50411998  .00001182  00000-0  92350-4 0  9997,2 50157  53.2136 234.3638 0001398  82.3032 277.8119 15.08840874 64716,6917.878,95.437,540.71,538.776,0.0
50157.0,STARLINK-3313,PAYLOAD,2023-02-16 21:38:14,15.08845186,0.0001263,53.2128,232.5799,81.034,279.0795,0.00014136,1.963e-05,0.0,0 STARLINK-3313,1 50157U 21125B   23047.90155620  .00001963  00000-0  14136-3 0  9990,2 50157  53.2128 232.5799 0001263  81.0340 279.0795 15.08845186 67903,6917.865,95.437,540.603,538.856,0.0
50157.0,STARLINK-3313,PAYLOAD,2023-02-17 11:56:43,15.08836572,0.0001253,53.2129,229.9035,83.297,276.8165,2.8012e-05,1.58e-06,0.0,0 STARLINK-3313,1 50157U 21125B   23048.49772067  .00000158  00000-0  28012-4 0  9999,2 50157  53.2129 229.9035 0001253  83.2970 276.8165 15.08836572 67993,6917.891,95.438,540.623,538.889,0.0
50157.0,STARLINK-3313,PAYLOAD,2023-02-17 18:18:15,15.08840087,0.0001343,53.2126,228.7137,84.1759,275.9386,0.00012072,1.634e-05,0.0,0 STARLINK-3313,1 50157U 21125B   23048.76268059  .00001634  00000-0  12072-3 0  9998,2 50157  53.2126 228.7137 0001343  84.1759 275.9386 15.08840087 64904,6917.88,95.438,540.674,538.816,0.0
50157.0,STARLINK-3313,PAYLOAD,2023-02-17 21:29:01,15.08840285,0.0001137,53.2133,228.1189,84.3726,275.7396,0.00011793,1.59e-05,0.0,0 STARLINK-3313,1 50157U 21125B   23048.89516022  .00001590  00000-0  11793-3 0  9998,2 50157  53.2133 228.1189 0001137  84.3726 275.7396 15.08840285 68059,6917.88,95.438,540.531,538.958,0.0
50157.0,STARLINK-3313,PAYLOAD,2023-02-18 11:47:30,15.08837856,0.0001301,53.2143,225.4445,73.6073,286.5062,0.00015391,2.162e-05,0.0,0 STARLINK-3313,1 50157U 21125B   23049.49132425  .00002162  00000-0  15391-3 0  9990,2 50157  53.2143 225.4445 0001301  73.6073 286.5062 15.08837856 68144,6917.887,95.438,540.652,538.852,0.0
50157.0,STARLINK-3313,PAYLOAD,2023-02-18 22:55:12,15.08845998,0.0001172,53.2132,223.361,76.367,283.7452,0.00034248,5.168e-05,0.0,0 STARLINK-3313,1 50157U 21125B   23049.95500090  .00005168  00000-0  34248-3 0  9999,2 50157  53.2132 223.3610 0001172  76.3670 283.7452 15.08845998 65080,6917.862,95.437,540.538,538.916,0.0
50157.0,STARLINK-3313,PAYLOAD,2023-02-19 11:38:17,15.08841218,0.0001362,53.213,220.9814,84.9647,275.15,0.00018453,2.65e-05,0.0,0 STARLINK-3313,1 50157U 21125B   23050.48492355  .00002650  00000-0  18453-3 0  9996,2 50157  53.2130 220.9814 0001362  84.9647 275.1500 15.08841218 65166,6917.877,95.437,540.684,538.799,0.0
50157.0,STARLINK-3313,PAYLOAD,2023-02-19 14:49:03,15.08841702,0.0001334,53.2133,220.3869,84.355,275.7594,0.0001829,2.624e-05,0.0,0 STARLINK-3313,1 50157U 21125B   23050.61740322  .00002624  00000-0  18290-3 0  9991,2 50157  53.2133 220.3869 0001334  84.3550 275.7594 15.08841702 68316,6917.875,95.437,540.663,538.817,0.0
50157.0,STARLINK-3313,PAYLOAD,2023-02-20 11:29:04,15.08839021,0.0001272,53.2137,216.521,88.1992,271.9145,8.364e-05,1.043e-05,0.0,0 STARLINK-3313,1 50157U 21125B   23051.47852338  .00001043  00000-0  83640-4 0  9993,2 50157  53.2137 216.5210 0001272  88.1992 271.9145 15.08839021 68445,6917.883,95.438,540.628,538.868,0.0
50157.0,STARLINK-3313,PAYLOAD,2023-02-20 19:25:59,15.0884367,0.0001126,53.2139,215.0343,87.9547,272.1574,9.0618e-05,1.155e-05,0.0,0 STARLINK-3313,1 50157U 21125B   23051.80972065  .00001155  00000-0  90618-4 0  9997,2 50157  53.2139 215.0343 0001126  87.9547 272.1574 15.08843670 65361,6917.869,95.437,540.513,538.955,0.0
50157.0,STARLINK-3313,PAYLOAD,2023-02-21 11:19:51,15.08838187,0.0001058,53.2141,212.0605,90.1769,269.9345,5.8199e-05,6.39e-06,0.0,0 STARLINK-3313,1 50157U 21125B   23052.47212335  .00000639  00000-0  58199-4 0  9992,2 50157  53.2141 212.0605 0001058  90.1769 269.9345 15.08838187 65466,6917.886,95.438,540.483,539.019,0.0
50157.0,STARLINK-3313,PAYLOAD,2023-02-21 19:16:46,15.08848483,0.0001088,53.2144,210.5741,88.8672,271.2445,0.00016786,2.385e-05,0.0,0 STARLINK-3313,1 50157U 21125B   23052.80331741  .00002385  00000-0  16786-3 0  9997,2 50157  53.2144 210.5741 0001088  88.8672 271.2445 15.08848483 65516,6917.854,95.437,540.472,538.967,0.0
50157.0,STARLINK-3313,PAYLOAD,2023-02-22 11:10:38,15.08837066,0.0001291,53.2169,207.6007,89.9473,270.1667,2.5315e-05,1.15e-06,0.0,0 STARLINK-3313,1 50157U 21125B   23053.46572327  .00000115  00000-0  25315-4 0  9995,2 50157  53.2169 207.6007 0001291  89.9473 270.1667 15.08837066 65612,6917.889,95.438,540.647,538.861,0.0
50157.0,STARLINK-3313,PAYLOAD,2023-02-22 20:42:57,15.08840261,0.0001303,53.2144,205.8156,75.0628,285.0509,2.613e-05,1.28e-06,0.0,0 STARLINK-3313,1 50157U 21125B   23053.86316184  .00000128  00000-0  26130-4 0  9996,2 50157  53.2144 205.8156 0001303  75.0628 285.0509 15.08840261 68807,6917.88,95.438,540.646,538.843,0.0
50157.0,STARLINK-3313,PAYLOAD,2023-02-23 11:01:25,15.08836462,7.96e-05,53.2145,203.1395,85.758,274.3503,-4.2133e-05,-9.58e-06,0.0,0 STARLINK-3313,1 50157U 21125B   23054.45932447 -.00000958  00000-0 -42133-4 0  9992,2 50157  53.2145 203.1395 0000796  85.7580 274.3503 15.08836462 68896,6917.891,95.438,540.307,539.206,0.0
50157.0,STARLINK-3313,PAYLOAD,2023-02-23 18:58:20,15.08847191,0.0001169,53.2144,201.6521,78.6205,281.4918,0.00021185,3.086e-05,0.0,0 STARLINK-3313,1 50157U 21125B   23054.79052030  .00003086  00000-0  21185-3 0  9996,2 50157  53.2144 201.6521 0001169  78.6205 281.4918 15.08847191 65818,6917.858,95.437,540.532,538.915,0.0
50157.0,STARLINK-3313,PAYLOAD,2023-02-24 02:55:16,15.08833019,2.3e-05,53.2154,200.1659,100.8731,259.2287,-3.9049e-05,-9.09e-06,0.0,0 STARLINK-3313,1 50157U 21125B   23055.12172160 -.00000909  00000-0 -39049-4 0  9993,2 50157  53.2154 200.1659 0000230 100.8731 259.2287 15.08833019 65866,6917.902,95.438,539.926,539.608,0.0
50157.0,STARLINK-3313,PAYLOAD,2023-02-24 12:27:35,15.08836729,7.87e-05,53.2145,198.3815,90.3613,269.7469,0.00016068,2.27e-05,0.0,0 STARLINK-3313,1 50157U 21125B   23055.51916496  .00002270  00000-0  16068-3 0  9990,2 50157  53.2145 198.3815 0000787  90.3613 269.7469 15.08836729 69051,6917.89,95.438,540.3,539.211,0.0
